GLOBALSTAR M075         
1 37192U 10054E   25267.32025115 -.00000095  00000+0  50250-4 0  9993
2 37192  51.9930 239.6991 0000384  67.0652  76.3141 12.62267828688368
GLOBALSTAR M073         
1 37193U 10054F   25267.86042978 -.00000065  00000+0  21899-3 0  9992
2 37193  52.0052 151.9506 0000740  87.6343 351.1134 12.62262836690425
GLOBALSTAR M083         
1 37739U 11033A   25267.87991669 -.00000071  00000+0  18249-3 0  9999
2 37739  51.9843 100.4833 0000952  90.0618  17.8542 12.62276264659443
GLOBALSTAR M088         
1 37740U 11033B   25267.59530736 -.00000090  00000+0  76803-4 0  9996
2 37740  52.0245   7.1344 0000620  95.5368 277.7475 12.62267904654951
GLOBALSTAR M091         
1 37741U 11033C   25267.45041062 -.00000086  00000+0  97882-4 0  9996
2 37741  52.0017 330.9337 0000642  95.2586 280.5061 12.62259826655724
GLOBALSTAR M085         
1 37742U 11033D   25267.99147626 -.00000094  00000+0  51931-4 0  9993
2 37742  52.0116 280.3480 0000581  87.0064 288.1761 12.62264999656307
GLOBALSTAR M081         
1 37743U 11033E   25267.30498514 -.00000088  00000+0  88957-4 0  9995
2 37743  51.9952 285.1774 0000471 108.8421 264.5937 12.62268513656365
GLOBALSTAR M089         
1 37744U 11033F   25267.69580043 -.00000098  00000+0  30342-4 0  9993
2 37744  51.9916 238.1939 0000166  47.8906 123.1465 12.62267000657253
